QZS-1R                  
1 49336U 21096A   24235.48938229 -.00000264  00000+0  00000+0 0  9995
2 49336  36.0780  89.5225 0741622 269.2776 281.0742  1.00299525 10348
